STARLINK-2414           
1 48095U 21027D   26068.53448898  .00007537  00000+0  26621-3 0  9990
2 48095  53.1610 166.0306 0001397  94.3666 265.7494 15.30216265272504
YAOGAN-36 04C           
1 54750U 22171E   26068.78871400  .00016196  00000+0  54592-3 0  9991
2 54750  34.9797  96.6578 0006685 275.3761  84.6192 15.29852307180246
