[{"OBJECT_NAME":"STARLINK-2414","OBJECT_ID":"2021-027D","EPOCH":"2026-03-09T12:49:39.847872","MEAN_MOTION":15.30216265,"ECCENTRICITY":0.00013976,"INCLINATION":53.161,"RA_OF_ASC_NODE":166.0306,"ARG_OF_PERICENTER":94.3666,"MEAN_ANOMALY":265.7494,"EPHEMERIS_TYPE":0,"CLASSIFICATION_TYPE":"U","NORAD_CAT_ID":48095,"ELEMENT_SET_NO":999,"REV_AT_EPOCH":27250,"BSTAR":0.00026620708,"MEAN_MOTION_DOT":7.537e-5,"MEAN_MOTION_DDOT":0},{"OBJECT_NAME":"YAOGAN-36 04C","OBJECT_ID":"2022-171E","EPOCH":"2026-03-09T18:55:44.889600","MEAN_MOTION":15.29852307,"ECCENTRICITY":0.00066848,"INCLINATION":34.9797,"RA_OF_ASC_NODE":96.6578,"ARG_OF_PERICENTER":275.3761,"MEAN_ANOMALY":84.6192,"EPHEMERIS_TYPE":0,"CLASSIFICATION_TYPE":"U","NORAD_CAT_ID":54750,"ELEMENT_SET_NO":999,"REV_AT_EPOCH":18024,"BSTAR":0.00054591902,"MEAN_MOTION_DOT":0.00016196,"MEAN_MOTION_DDOT":0}]
